[{"OBJECT_NAME":"LEMUR-2-PETERG","OBJECT_ID":"2017-042S","EPOCH":"2026-03-09T11:34:35.656032","MEAN_MOTION":15.29611459,"ECCENTRICITY":0.00037,"INCLINATION":97.398,"RA_OF_ASC_NODE":253.6596,"ARG_OF_PERICENTER":341.6938,"MEAN_ANOMALY":18.4169,"EPHEMERIS_TYPE":0,"CLASSIFICATION_TYPE":"U","NORAD_CAT_ID":42841,"ELEMENT_SET_NO":999,"REV_AT_EPOCH":47317,"BSTAR":0.00081076471,"MEAN_MOTION_DOT":0.0002324,"MEAN_MOTION_DDOT":0},{"OBJECT_NAME":"STARLINK-32462","OBJECT_ID":"2024-222R","EPOCH":"2026-03-09T12:49:10.471008","MEAN_MOTION":15.27574971,"ECCENTRICITY":0.00021136,"INCLINATION":43.0035,"RA_OF_ASC_NODE":133.7368,"ARG_OF_PERICENTER":270.19,"MEAN_ANOMALY":89.871,"EPHEMERIS_TYPE":0,"CLASSIFICATION_TYPE":"U","NORAD_CAT_ID":62129,"ELEMENT_SET_NO":999,"REV_AT_EPOCH":7276,"BSTAR":0.00074955938,"MEAN_MOTION_DOT":0.00020418,"MEAN_MOTION_DDOT":0}]
